[{"OBJECT_NAME":"STARLINK-32336","OBJECT_ID":"2024-158Q","EPOCH":"2026-03-09T23:12:10.759680","MEAN_MOTION":15.30185328,"ECCENTRICITY":0.00013967,"INCLINATION":53.1616,"RA_OF_ASC_NODE":64.2471,"ARG_OF_PERICENTER":97.0589,"MEAN_ANOMALY":263.0571,"EPHEMERIS_TYPE":0,"CLASSIFICATION_TYPE":"U","NORAD_CAT_ID":61004,"ELEMENT_SET_NO":999,"REV_AT_EPOCH":8569,"BSTAR":1.9365498e-5,"MEAN_MOTION_DOT":2.14e-6,"MEAN_MOTION_DDOT":0},{"OBJECT_NAME":"SPACEMOBILE-005 DEB","OBJECT_ID":"2024-163K","EPOCH":"2026-03-09T07:33:15.902496","MEAN_MOTION":15.31481997,"ECCENTRICITY":0.00072885,"INCLINATION":52.9762,"RA_OF_ASC_NODE":31.7924,"ARG_OF_PERICENTER":175.8731,"MEAN_ANOMALY":184.2329,"EPHEMERIS_TYPE":0,"CLASSIFICATION_TYPE":"U","NORAD_CAT_ID":62373,"ELEMENT_SET_NO":999,"REV_AT_EPOCH":8280,"BSTAR":0.00063853778,"MEAN_MOTION_DOT":0.00019381,"MEAN_MOTION_DDOT":0}]
